MOLNIYA 2-9             
1 07276U 74026A   22025.60091584  .00000160  00000+0  00000+0 0  9990
2 07276  64.2602 247.5405 6554402 283.0545  15.8693  2.45095372245712
MOLNIYA 2-10            
1 07376U 74056A   22028.19548591 -.00000938  00000+0  00000+0 0  9990
2 07376  63.9338 109.2223 6694630 287.8857  13.4447  2.01173103347538
MOLNIYA 1-S             
1 07392U 74060A   22029.74017719 -.00000335  00000+0  00000+0 0  9999
2 07392   5.4631 285.0508 0009858 202.0962  15.6896  1.00260371118129
MOLNIYA 1-29            
1 07780U 75036A   22028.61391052  .00000330  00000+0 -24288-1 0  9995
2 07780  63.3631 231.3765 7016148 289.4200  11.1590  2.00596094342815
MOLNIYA 2-14            
1 08195U 75081A   22025.66569149  .00001393  00000+0  00000+0 0  9995
2 08195  63.3745 203.7113 6902158 293.7147  10.7029  2.02077663340003
MOLNIYA 1-32            
1 08601U 76006A   22027.04880686  .00000423  00000+0 -56492-2 0  9994
2 08601  63.3741 317.9476 7334937 283.2603  10.8322  2.00084238 49835
MOLNIYA 1-36            
1 09880U 77021A   22025.82205309  .00001108  00000+0 -68440-3 0  9997
2 09880  63.2078 288.4179 7291454 289.2736   9.7915  2.00369005226502
MOLNIYA 3-8             
1 10455U 77105A   22028.04226275  .00000431  00000+0 -60425-3 0  9995
2 10455  63.0333  19.7957 7394883 281.4721  10.7237  2.00432546324241
MOLNIYA 1-40            
1 10925U 78055A   22029.12946625 -.00000396  00000+0  00000+0 0  9999
2 10925  63.0099  68.0900 7228401 280.1602  12.0899  2.00528108319886
MOLNIYA 3-10            
1 11057U 78095A   22029.27013446  .00000373  00000+0  10372-2 0  9992
2 11057  62.9429  90.9781 5811884 308.6867  12.3046  4.09838557378020
MOLNIYA 3-13            
1 11896U 80063A   22028.39030875  .00000228  00000+0  00000+0 0  9991
2 11896  62.6222 155.0876 7051912 276.1333  14.4919  2.00561526304281
MOLNIYA 1-49            
1 12156U 81009A   22029.16728673  .00001310  00000+0 -21397-2 0  9997
2 12156  61.7182 186.4052 7203830 260.2751  19.0116  2.05694484218623
MOLNIYA 1-52            
1 13012U 81123A   22028.76774845 -.00000436  00000+0 -35431-2 0  9996
2 13012  62.2220 299.8538 7285947 252.8289  21.8246  2.00870324293772
MOLNIYA 1-53            
1 13070U 82015A   22028.21159543  .00001705  00000+0  25393-1 0  9996
2 13070  62.5533 232.2003 7143476 282.1729  12.1858  2.00606446292446
MOLNIYA 3-20            
1 13875U 83015A   22028.91773267 -.00001421  00000+0  34615-3 0  9997
2 13875  63.0696  14.8178 7388124 256.9764  18.7419  2.00721555220918
MOLNIYA 1-56            
1 13890U 83019A   22028.12526768  .00001303  00000+0  13321-2 0  9991
2 13890  63.0492  40.5781 7416198 262.9399  16.0057  1.99844668283791
MOLNIYA 1-62            
1 15214U 84089A   22028.17047635  .00018597  12213-5  14966-2 0  9991
2 15214  62.8075  40.8015 7537856 269.9085  12.7326  1.99177370241474
MOLNIYA 1-63            
1 15429U 84124A   22028.96605549  .00000979  00000+0  00000+0 0  9991
2 15429  63.6511 180.9043 6570141 260.9749 346.5703  2.00363089271954
MOLNIYA 3-24            
1 15738U 85040A   22029.28807870 -.00000096  00000+0  00000+0 0  9990
2 15738  63.7470 108.0865 6733283 247.7229  31.3414  2.55628279300315
MOLNIYA 3-27            
1 16393U 85117A   22029.33679224 -.00000128  00000+0  00000+0 0  9995
2 16393  64.5021  99.1838 6891458 249.7641  28.0010  2.12398218271247
MOLNIYA 1-69            
1 17078U 86089A   22027.47771799 -.00000423  00000+0  00000+0 0  9996
2 17078  64.0697 199.8486 6601461 259.9028  25.1454  2.00970855257990
MOLNIYA 3-31            
1 17328U 87008A   22028.84159924 -.00000231  00000+0  00000+0 0  9995
2 17328  63.7494 144.7632 6920955 254.9133  24.5573  2.00590488253064
MOLNIYA 1-71            
1 18946U 88017A   22028.86719763  .00000427  00000+0  00000+0 0  9994
2 18946  63.4523 140.6609 7038054 257.0408  22.1856  2.00589134248259
MOLNIYA 1-75            
1 19807U 89014A   22026.97987286  .00001009  00000+0  00000+0 0  9993
2 19807  64.1439 300.6417 6935315 267.8863  18.4199  2.00442834241160
MOLNIYA 1-80            
1 21118U 91012A   22028.79056373 -.00000447  00000+0  00000+0 0  9994
2 21118  65.1356 348.4009 6838041 279.5181  15.0073  2.05240869228118
MOLNIYA 3-40            
1 21196U 91022A   22028.93175369 -.00000415  00000+0  00000+0 0  9999
2 21196  65.1136 341.8734 6870829 276.2217  15.8669  2.03025983226850
MOLNIYA 1-81            
1 21426U 91043A   22028.96218429 -.00000082  00000+0  00000+0 0  9996
2 21426  64.1952   1.8814 7114709 267.9619  16.8075  2.00605449224369
MOLNIYA 3-41            
1 21706U 91065A   22028.45115479 -.00000646  00000+0  00000+0 0  9992
2 21706  64.1136 180.9026 6757219 257.5518  24.8256  2.04362391224000
MOLNIYA 3-42            
1 22178U 92067A   22025.44408770  .00000223  00000+0  00000+0 0  9994
2 22178  64.6826 231.1811 6476367 269.4305  21.6630  2.20433883221364
MOLNIYA 1-86            
1 22671U 93035A   22029.54292356  .00000063  00000+0  24397-3 0  9995
2 22671  63.1458 317.4067 4829974   4.9913 358.4631  5.62641665344488
MOLNIYA 1-87            
1 22949U 93079A   22025.60301447 -.00000355  00000+0  00000+0 0  9992
2 22949  63.7288 108.3951 6827953 285.3497  13.3281  2.02855919 72038
MOLNIYA 1-88            
1 23420U 94081A   22029.47958380  .00000103  00000+0  00000+0 0  9994
2 23420  64.2780 226.5939 5853663 285.5972  19.8440  3.34495672109054
MOLNIYA 3-47            
1 23642U 95042A   22029.13031954 -.00001208  00000+0  00000+0 0  9998
2 23642  63.7872  90.3286 6884937 285.4496  12.9174  2.01967812194209
MOLNIYA 1-90            
1 24960U 97054A   22029.08714415  .00000112  00000+0  24425-2 0  9993
2 24960  63.6323 194.4756 6170160 299.7018  13.0323  3.18686554203563
MOLNIYA 1-91            
1 25485U 98054A   22029.10309616  .00000158  00000+0  22925-2 0  9996
2 25485  62.9881 171.9089 6810073 291.8705 228.6959  2.36442622175085
MOLNIYA 3-50            
1 25847U 99036A   22028.93807938 -.00000353  00000+0 -81601-4 0  9996
2 25847  63.0272 356.4389 7428678 281.1075  10.6658  2.00609289165310
